[Satellite]
VERSION=1.1
NAME=UO-11
NICKNAME=UO-11
TLE1=1 14781U 84021B   22342.36644251  .00001164  00000+0  14570-3 0  9991
TLE2=2 14781  97.6361 322.0788 0009789 106.3589 253.8703 14.84016291 65836
STATUS=0
